NORAD_CAT_ID,OBJECT_NAME,OBJECT_TYPE,EPOCH,MEAN_MOTION,ECCENTRICITY,INCLINATION,RA_OF_ASC_NODE,ARG_OF_PERICENTER,MEAN_ANOMALY,BSTAR,MEAN_MOTION_DOT,MEAN_MOTION_DDOT,TLE_LINE0,TLE_LINE1,TLE_LINE2,SEMIMAJOR_AXIS,PERIOD,APOGEE,PERIGEE,DECAYED
51465.0,STARLINK-3401,PAYLOAD,2022-04-30 22:00:00,15.08836394,0.0002047,53.2161,123.3309,46.2675,71.2856,0.00018919,2.724e-05,0.0,0 STARLINK-3401,1 51465U 22010K   22120.91667824  .00002724  00000-0  18919-3 0  9992,2 51465  53.2161 123.3309 0002047  46.2675  71.2856 15.08836394  3600,6917.891,95.438,541.173,538.34,0.0
51465.0,STARLINK-3401,PAYLOAD,2022-05-01 06:00:00,15.08830848,0.0002172,53.2162,121.836,42.8541,86.2926,-0.0010556,-0.00017045,0.0,0 STARLINK-3401,1 51465U 22010K   22121.25001157 -.00017045  00000-0 -10556-2 0  9993,2 51465  53.2162 121.8360 0002172  42.8541  86.2926 15.08830848 14697,6917.908,95.438,541.276,538.271,0.0
51465.0,STARLINK-3401,PAYLOAD,2022-05-01 14:00:01,15.08835604,0.0002195,53.2159,120.3395,41.4886,99.227,-0.0008830999999999,-0.00014314,0.0,0 STARLINK-3401,1 51465U 22010K   22121.58334491 -.00014314  00000-0 -88310-3 0  9999,2 51465  53.2159 120.3395 0002195  41.4886  99.2270 15.08835604  3584,6917.894,95.438,541.2769999999998,538.24,0.0
51465.0,STARLINK-3401,PAYLOAD,2022-05-01 22:00:01,15.08814433,0.0002012,53.2162,118.8417,47.143,105.2238,0.0024461,0.0003883,0.0,0 STARLINK-3401,1 51465U 22010K   22121.91668981  .00038830  00000-0  24461-2 0  9993,2 51465  53.2162 118.8417 0002012  47.1430 105.2238 15.08814433 14795,6917.959,95.439,541.215,538.432,0.0
51465.0,STARLINK-3401,PAYLOAD,2022-05-02 14:00:01,15.08850065,0.0002196,53.2159,115.8503,43.9916,131.4765,-0.0013707,-0.00022043,0.0,0 STARLINK-3401,1 51465U 22010K   22122.58334491 -.00022043  00000-0 -13707-2 0  9995,2 51465  53.2159 115.8503 0002196  43.9916 131.4765 15.08850065 14898,6917.85,95.437,541.234,538.195,0.0
51465.0,STARLINK-3401,PAYLOAD,2022-05-02 22:00:01,15.08828833,0.0002049,53.216,114.3527,49.746,137.3863,0.0021161,0.0003354,0.0,0 STARLINK-3401,1 51465U 22010K   22122.91668981  .00033540  00000-0  21161-2 0  9991,2 51465  53.2160 114.3527 0002049  49.7460 137.3863 15.08828833  3592,6917.915,95.438,541.197,538.362,0.0
51465.0,STARLINK-3401,PAYLOAD,2022-05-03 04:00:00,15.08859216,0.0002175,53.2162,113.2318,47.6828,58.0792,-0.0017216999999999,-0.000276,0.0,0 STARLINK-3401,1 51465U 22010K   22123.16667824 -.00027600  00000-0 -17217-2 0  9993,2 51465  53.2162 113.2318 0002175  47.6828  58.0792 15.08859216 14989,6917.821999999999,95.436,541.191,538.182,0.0
51465.0,STARLINK-3401,PAYLOAD,2022-05-03 14:00:01,15.08863499,0.0002211,53.2158,111.3613,45.9756,164.2856,-0.0016889,-0.00027085,0.0,0 STARLINK-3401,1 51465U 22010K   22123.58334491 -.00027085  00000-0 -16889-2 0  9991,2 51465  53.2158 111.3613 0002211  45.9756 164.2856 15.08863499  3597,6917.809,95.436,541.203,538.144,0.0
51465.0,STARLINK-3401,PAYLOAD,2022-05-03 22:00:00,15.0882049,0.0002024,53.2161,109.8637,49.6901,172.1836,0.0015065,0.00023757,0.0,0 STARLINK-3401,1 51465U 22010K   22123.91667824  .00023757  00000-0  15065-2 0  9992,2 51465  53.2161 109.8637 0002024  49.6901 172.1836 15.08820490 15104,6917.94,95.439,541.205,538.405,0.0
51465.0,STARLINK-3401,PAYLOAD,2022-05-04 14:00:01,15.08852821,0.000218,53.2161,106.8722,45.487,199.5479,-0.001854,-0.00029685,0.0,0 STARLINK-3401,1 51465U 22010K   22124.58334491 -.00029685  00000-0 -18540-2 0  9996,2 51465  53.2161 106.8722 0002180  45.4870 199.5479 15.08852821 15208,6917.840999999999,95.437,541.214,538.198,0.0
51465.0,STARLINK-3401,PAYLOAD,2022-05-04 22:00:01,15.08832866,0.0002113,53.2163,105.3747,51.1615,205.5346,0.0019823,0.00031395,0.0,0 STARLINK-3401,1 51465U 22010K   22124.91668981  .00031395  00000-0  19823-2 0  9991,2 51465  53.2163 105.3747 0002113  51.1615 205.5346 15.08832866  3618,6917.901999999999,95.438,541.229,538.305,0.0
51465.0,STARLINK-3401,PAYLOAD,2022-05-05 06:00:00,15.08845609,0.0002309,53.2165,103.8803,47.0862,221.1512,0.0003622,5.482e-05,0.0,0 STARLINK-3401,1 51465U 22010K   22125.25001157  .00005482  00000-0  36220-3 0  9994,2 51465  53.2165 103.8803 0002309  47.0862 221.1512 15.08845609 15308,6917.863,95.437,541.326,538.131,0.0
51465.0,STARLINK-3401,PAYLOAD,2022-05-05 14:00:01,15.08875621,0.0002201,53.2165,102.3832,45.5167,234.318,-0.0047192,-0.00074692,0.0,0 STARLINK-3401,1 51465U 22010K   22125.58334491 -.00074692  00000-0 -47192-2 0  9990,2 51465  53.2165 102.3832 0002201  45.5167 234.3180 15.08875621  3565,6917.772,95.435,541.159,538.114,0.0
51465.0,STARLINK-3401,PAYLOAD,2022-05-05 22:00:00,15.08824754,0.0002114,53.2169,100.8858,50.1466,241.2928,0.0018194,0.00028775,0.0,0 STARLINK-3401,1 51465U 22010K   22125.91667824  .00028775  00000-0  18194-2 0  9995,2 51465  53.2169 100.8858 0002114  50.1466 241.2928 15.08824754  3565,6917.927,95.439,541.254,538.33,0.0
51465.0,STARLINK-3401,PAYLOAD,2022-05-06 08:00:01,15.08820055,0.0002322,53.2171,99.0176,45.2557,350.6769,0.0025138,0.00039925,0.0,0 STARLINK-3401,1 51465U 22010K   22126.33334491  .00039925  00000-0  25138-2 0  9998,2 51465  53.2171  99.0176 0002322  45.2557 350.6769 15.08820055 15467,6917.941,95.439,541.413,538.2,0.0
51465.0,STARLINK-3401,PAYLOAD,2022-05-06 14:00:01,15.08871515,0.000221,53.2171,97.8942,45.309,269.3075,-0.0048765,-0.00077137,0.0,0 STARLINK-3401,1 51465U 22010K   22126.58334491 -.00077137  00000-0 -48765-2 0  9995,2 51465  53.2171  97.8942 0002210  45.3090 269.3075 15.08871515  3564,6917.784000000002,95.436,541.178,538.12,0.0
51465.0,STARLINK-3401,PAYLOAD,2022-05-06 22:00:00,15.08819727,0.0002112,53.2175,96.397,49.8411,276.3754,0.0016003,0.00025259,0.0,0 STARLINK-3401,1 51465U 22010K   22126.91667824  .00025259  00000-0  16003-2 0  9997,2 51465  53.2175  96.3970 0002112  49.8411 276.3754 15.08819727 15551,6917.941999999999,95.439,541.268,538.346,0.0
51465.0,STARLINK-3401,PAYLOAD,2022-05-07 14:00:01,15.08851203,0.0002232,53.2175,93.4052,46.7667,302.6107,-0.0018687,-0.00029916,0.0,0 STARLINK-3401,1 51465U 22010K   22127.58334491 -.00029916  00000-0 -18687-2 0  9998,2 51465  53.2175  93.4052 0002232  46.7667 302.6107 15.08851203 15653,6917.846,95.437,541.255,538.1669999999998,0.0
51465.0,STARLINK-3401,PAYLOAD,2022-05-07 22:00:00,15.08844074,0.000216,53.2179,91.9082,51.6723,309.3022,0.0012771,0.00020098,0.0,0 STARLINK-3401,1 51465U 22010K   22127.91667824  .00020098  00000-0  12771-2 0  9992,2 51465  53.2179  91.9082 0002160  51.6723 309.3022 15.08844074  3601,6917.868,95.437,541.227,538.239,0.0
51465.0,STARLINK-3401,PAYLOAD,2022-05-08 06:00:00,15.08850235,0.0002329,53.2178,90.4137,46.924,325.6588,-0.00043781,-7.252e-05,0.0,0 STARLINK-3401,1 51465U 22010K   22128.25001157 -.00007252  00000-0 -43781-3 0  9996,2 51465  53.2178  90.4137 0002329  46.9240 325.6588 15.08850235 15756,6917.849,95.437,541.325,538.1030000000002,0.0
51465.0,STARLINK-3401,PAYLOAD,2022-05-08 14:00:01,15.08848239,0.000217,53.2176,88.9161,47.6844,336.5025,-0.0022192,-0.00035443,0.0,0 STARLINK-3401,1 51465U 22010K   22128.58334491 -.00035443  00000-0 -22192-2 0  9997,2 51465  53.2176  88.9161 0002170  47.6844 336.5025 15.08848239  3604,6917.855,95.437,541.221,538.219,0.0
51465.0,STARLINK-3401,PAYLOAD,2022-05-08 22:00:00,15.08841346,0.0002087,53.2179,87.4193,51.8106,343.9659,0.00081122,0.00012647,0.0,0 STARLINK-3401,1 51465U 22010K   22128.91667824  .00012647  00000-0  81122-3 0  9991,2 51465  53.2179  87.4193 0002087  51.8106 343.9659 15.08841346  3608,6917.876,95.437,541.185,538.298,0.0
51465.0,STARLINK-3401,PAYLOAD,2022-05-09 14:00:01,15.08859764,0.0002085,53.2174,84.4269,48.8717,10.1702,-0.0033589,-0.0005338,0.0,0 STARLINK-3401,1 51465U 22010K   22129.58335648 -.00053380  00000-0 -33589-2 0  9995,2 51465  53.2174  84.4269 0002085  48.8717  10.1702 15.08859764 15952,6917.82,95.436,541.127,538.243,0.0
51465.0,STARLINK-3401,PAYLOAD,2022-05-09 22:00:00,15.08843027,0.0002003,53.2175,82.9303,52.2813,18.294,0.00042833,6.536e-05,0.0,0 STARLINK-3401,1 51465U 22010K   22129.91667824  .00006536  00000-0  42833-3 0  9998,2 51465  53.2175  82.9303 0002003  52.2813  18.2940 15.08843027  3596,6917.871,95.437,541.122,538.35,0.0
51465.0,STARLINK-3401,PAYLOAD,2022-05-10 00:00:00,15.08854404,0.0002036,53.2175,82.5567,50.9908,112.4819,-0.0011993,-0.00019332,0.0,0 STARLINK-3401,1 51465U 22010K   22130.00001157 -.00019332  00000-0 -11993-2 0  9993,2 51465  53.2175  82.5567 0002036  50.9908 112.4819 15.08854404 16014,6917.8359999999975,95.437,541.11,538.293,0.0
51465.0,STARLINK-3401,PAYLOAD,2022-05-10 14:00:01,15.0883697,0.0001979,53.217,79.9378,49.3857,44.3837,-0.0020158,-0.00032225,0.0,0 STARLINK-3401,1 51465U 22010K   22130.58334491 -.00032225  00000-0 -20158-2 0  9995,2 51465  53.2170  79.9378 0001979  49.3857  44.3837 15.08836970  3601,6917.89,95.438,541.124,538.386,0.0
51465.0,STARLINK-3401,PAYLOAD,2022-05-10 18:00:00,15.08799082,0.0001916,53.2169,79.189,51.2796,228.2901,0.0031646,0.00050381,0.0,0 STARLINK-3401,1 51465U 22010K   22130.75001157  .00050381  00000-0  31646-2 0  9999,2 51465  53.2169  79.1890 0001916  51.2796 228.2901 15.08799082  3589,6918.005,95.44,541.196,538.545,0.0
51465.0,STARLINK-3401,PAYLOAD,2022-05-11 22:00:00,15.08857426,0.0001965,53.217,73.9521,52.9819,87.1276,-0.0025443,-0.00040573,0.0,0 STARLINK-3401,1 51465U 22010K   22131.91667824 -.00040573  00000-0 -25443-2 0  9999,2 51465  53.2170  73.9521 0001965  52.9819  87.1276 15.08857426 16300,6917.8269999999975,95.436,541.0509999999998,538.3330000000002,0.0
51465.0,STARLINK-3401,PAYLOAD,2022-05-12 14:00:01,15.08840233,0.000194,53.217,70.9593,49.9052,113.3904,0.00029593,4.425e-05,0.0,0 STARLINK-3401,1 51465U 22010K   22132.58334491  .00004425  00000-0  29593-3 0  9999,2 51465  53.2170  70.9593 0001940  49.9052 113.3904 15.08840233  1306,6917.88,95.438,541.087,538.403,0.0
